OBJECT_NAME,OBJECT_ID,EPOCH,MEAN_MOTION,ECCENTRICITY,INCLINATION,RA_OF_ASC_NODE,ARG_OF_PERICENTER,MEAN_ANOMALY,EPHEMERIS_TYPE,CLASSIFICATION_TYPE,NORAD_CAT_ID,ELEMENT_SET_NO,REV_AT_EPOCH,BSTAR,MEAN_MOTION_DOT,MEAN_MOTION_DDOT
STARLINK-36193,2025-298AA,2026-05-24T03:35:28.879584,14.98315539,.0003606,70.0014,184.0811,271.0781,88.9965,0,U,67099,999,2452,.36375E-3,.4248E-4,0
STARLINK-36215,2025-298AB,2026-05-24T02:29:10.709088,14.98341510,.0003496,70.0012,184.3034,266.6445,93.4314,0,U,67100,999,2451,.28836E-3,.335E-4,0
STARLINK-36200,2025-298AC,2026-05-24T03:05:27.629664,14.98336577,.0003879,70.0011,184.3967,265.5475,94.5241,0,U,67101,999,2451,.22654E-3,.2612E-4,0
STARLINK-36255,2025-299A,2026-05-23T22:34:34.665600,15.27587413,.0001051,43.0001,104.1294,280.4235,79.6498,0,U,67102,999,2462,.41232E-3,.11104E-3,0
STARLINK-36256,2025-299B,2026-05-24T04:41:57.037056,15.27591074,.0000568,43.0005,102.6034,254.0228,106.0561,0,U,67103,999,2466,.2737E-3,.728E-4,0
STARLINK-36258,2025-299C,2026-05-24T05:02:17.928672,15.27590764,.000194,43.0028,102.7020,262.4260,97.6372,0,U,67104,999,2466,.47987E-3,.1297E-3,0
STARLINK-36261,2025-299D,2026-05-23T22:29:01.603104,15.27587290,.0000822,43.0015,104.1010,258.6216,101.4543,0,U,67105,999,2462,.53796E-3,.14574E-3,0
STARLINK-36259,2025-299E,2026-05-24T04:04:56.417952,15.27587120,.0001042,42.9994,102.4044,265.2537,94.8196,0,U,67106,999,2466,.32223E-3,.8617E-4,0
STARLINK-36196,2025-299F,2026-05-24T00:05:01.804704,15.27589808,.0001102,43.0012,103.7352,253.0759,106.9972,0,U,67107,999,2463,.47351E-3,.12794E-3,0
STARLINK-36208,2025-299G,2026-05-24T04:01:14.529792,15.27585552,.0001104,43.0012,102.3815,250.8218,109.2515,0,U,67108,999,2466,.37037E-3,.9945E-4,0
STARLINK-35764,2025-299H,2026-05-24T04:25:18.386112,15.27574234,.0000877,43.0002,102.5100,254.5990,105.4764,0,U,67109,999,2575,.44355E-3,.11961E-3,0
STARLINK-35781,2025-299J,2026-05-24T03:35:32.820288,15.27599447,.0002043,43.0013,103.1141,283.5413,76.5211,0,U,67110,999,2465,.60604E-3,.16462E-3,0
STARLINK-35875,2025-299K,2026-05-24T04:21:37.316160,15.27597589,.0000915,43.0012,102.4833,258.4809,101.5940,0,U,67111,999,2466,.51211E-3,.13864E-3,0
STARLINK-35906,2025-299L,2026-05-24T03:33:41.834304,15.27588002,.0000876,43.0031,103.1004,271.0561,89.0190,0,U,67112,999,2465,.46885E-3,.12665E-3,0
STARLINK-35789,2025-299M,2026-05-24T04:58:36.685920,15.27545647,.0002743,43.0066,102.6812,239.6147,120.4433,0,U,67113,999,2466,.33564E-3,.8976E-4,0
STARLINK-36180,2025-299N,2026-05-23T14:49:20.303040,15.27592506,.0001726,43.0056,105.9908,259.0392,101.0266,0,U,67114,999,2457,.36322E-3,.975E-4,0
STARLINK-35892,2025-299P,2026-05-24T04:14:11.860224,15.27600136,.0001238,43.0010,102.4496,257.3981,102.6732,0,U,67115,999,2466,.91916E-3,.25133E-3,0
STARLINK-35738,2025-299Q,2026-05-24T03:59:23.320896,15.27588672,.0001185,42.9991,102.3732,267.5375,92.5341,0,U,67116,999,2466,.35258E-3,.9455E-4,0
STARLINK-35674,2025-299R,2026-05-24T04:36:23.865696,15.27589871,.0001388,43.0019,102.5668,267.1453,92.9240,0,U,67117,999,2466,.53626E-3,.14528E-3,0
STARLINK-35701,2025-299S,2026-05-24T04:16:02.669088,15.27588652,.000076,43.0044,102.4570,254.5922,105.4845,0,U,67118,999,2466,.45994E-3,.12419E-3,0
STARLINK-36179,2025-299T,2026-05-24T04:30:50.893056,15.27588598,.0000739,43.0044,102.5364,273.0131,87.0636,0,U,67119,999,2466,.47013E-3,.127E-3,0
STARLINK-36217,2025-299U,2026-05-24T03:39:14.857056,15.27589252,.0001386,43.0016,103.1277,269.9306,90.1387,0,U,67120,999,2465,.45141E-3,.12184E-3,0
STARLINK-36124,2025-299V,2026-05-24T04:53:02.849280,15.27585731,.0001937,43.0017,102.6504,255.1899,104.8738,0,U,67121,999,2466,.64068E-3,.17413E-3,0
STARLINK-36188,2025-299W,2026-05-24T05:04:09.052896,15.27586855,.0001546,43.0031,102.7116,264.9389,95.1286,0,U,67122,999,2466,.47084E-3,.12719E-3,0
STARLINK-36151,2025-299X,2026-05-24T04:19:44.666112,15.27591843,.0000746,42.9991,102.4748,277.4906,82.5861,0,U,67123,999,2466,.37446E-3,.1006E-3,0
STARLINK-36195,2025-299Y,2026-05-24T03:48:17.005824,15.27568404,.0003442,43.0000,102.3114,269.0289,91.0168,0,U,67124,999,2466,.78001E-3,.21259E-3,0
STARLINK-36219,2025-299Z,2026-05-24T04:38:14.824032,15.27586298,.0001647,43.0047,102.5715,273.4362,86.6301,0,U,67125,999,2466,.37058E-3,.9951E-4,0
STARLINK-36223,2025-299AA,2026-05-24T04:27:08.479584,15.27593053,.0000887,43.0011,102.5100,256.8273,103.2480,0,U,67126,999,2466,.2549E-3,.6761E-4,0
STARLINK-36164,2025-299AB,2026-05-23T23:24:19.266336,15.27588122,.0001129,43.0017,103.5159,247.8642,112.2089,0,U,67127,999,2463,.3344E-3,.8953E-4,0
STARLINK-35685,2025-299AC,2026-05-24T04:10:29.729280,15.27586286,.0001069,43.0030,102.4332,263.4744,96.5986,0,U,67128,999,2466,.49434E-3,.13368E-3,0
