STARLINK-36193          
1 67099U 25298AA  26144.14963981  .00004248  00000+0  36375-3 0  9999
2 67099  70.0014 184.0811 0003606 271.0781  88.9965 14.98315539 24525
STARLINK-36215          
1 67100U 25298AB  26144.10359617  .00003350  00000+0  28836-3 0  9999
2 67100  70.0012 184.3034 0003496 266.6445  93.4314 14.98341510 24516
STARLINK-36200          
1 67101U 25298AC  26144.12879201  .00002612  00000+0  22654-3 0  9990
2 67101  70.0011 184.3967 0003879 265.5475  94.5241 14.98336577 24515
STARLINK-36255          
1 67102U 25299A   26143.94067900  .00011104  00000+0  41232-3 0  9995
2 67102  43.0001 104.1294 0001051 280.4235  79.6498 15.27587413 24628
STARLINK-36256          
1 67103U 25299B   26144.19579904  .00007280  00000+0  27370-3 0  9993
2 67103  43.0005 102.6034 0000568 254.0228 106.0561 15.27591074 24667
STARLINK-36258          
1 67104U 25299C   26144.20992973  .00012970  00000+0  47987-3 0  9999
2 67104  43.0028 102.7020 0001940 262.4260  97.6372 15.27590764 24663
STARLINK-36261          
1 67105U 25299D   26143.93682411  .00014574  00000+0  53796-3 0  9999
2 67105  43.0015 104.1010 0000822 258.6216 101.4543 15.27587290 24621
STARLINK-36259          
1 67106U 25299E   26144.17009743  .00008617  00000+0  32223-3 0  9991
2 67106  42.9994 102.4044 0001042 265.2537  94.8196 15.27587120 24664
STARLINK-36196          
1 67107U 25299F   26144.00349311  .00012794  00000+0  47351-3 0  9991
2 67107  43.0012 103.7352 0001102 253.0759 106.9972 15.27589808 24631
STARLINK-36208          
1 67108U 25299G   26144.16752928  .00009945  00000+0  37037-3 0  9995
2 67108  43.0012 102.3815 0001104 250.8218 109.2515 15.27585552 24662
STARLINK-35764          
1 67109U 25299H   26144.18424058  .00011961  00000+0  44355-3 0  9990
2 67109  43.0002 102.5100 0000877 254.5990 105.4764 15.27574234 25755
STARLINK-35781          
1 67110U 25299J   26144.14968542  .00016462  00000+0  60604-3 0  9995
2 67110  43.0013 103.1141 0002043 283.5413  76.5211 15.27599447 24656
STARLINK-35875          
1 67111U 25299K   26144.18168190  .00013864  00000+0  51211-3 0  9998
2 67111  43.0012 102.4833 0000915 258.4809 101.5940 15.27597589 24666
STARLINK-35906          
1 67112U 25299L   26144.14840086  .00012665  00000+0  46885-3 0  9995
2 67112  43.0031 103.1004 0000876 271.0561  89.0190 15.27588002 24654
STARLINK-35789          
1 67113U 25299M   26144.20736905  .00008976  00000+0  33564-3 0  9997
2 67113  43.0066 102.6812 0002743 239.6147 120.4433 15.27545647 24668
STARLINK-36180          
1 67114U 25299N   26143.61759610  .00009750  00000+0  36322-3 0  9996
2 67114  43.0056 105.9908 0001726 259.0392 101.0266 15.27592506 24573
STARLINK-35892          
1 67115U 25299P   26144.17652616  .00025133  00000+0  91916-3 0  9990
2 67115  43.0010 102.4496 0001238 257.3981 102.6732 15.27600136 24665
STARLINK-35738          
1 67116U 25299Q   26144.16624214  .00009455  00000+0  35258-3 0  9999
2 67116  42.9991 102.3732 0001185 267.5375  92.5341 15.27588672 24668
STARLINK-35674          
1 67117U 25299R   26144.19194289  .00014528  00000+0  53626-3 0  9993
2 67117  43.0019 102.5668 0001388 267.1453  92.9240 15.27589871 24664
STARLINK-35701          
1 67118U 25299S   26144.17780867  .00012419  00000+0  45994-3 0  9991
2 67118  43.0044 102.4570 0000760 254.5922 105.4845 15.27588652 24665
STARLINK-36179          
1 67119U 25299T   26144.18808904  .00012700  00000+0  47013-3 0  9993
2 67119  43.0044 102.5364 0000739 273.0131  87.0636 15.27588598 24664
STARLINK-36217          
1 67120U 25299U   26144.15225529  .00012184  00000+0  45141-3 0  9994
2 67120  43.0016 103.1277 0001386 269.9306  90.1387 15.27589252 24657
STARLINK-36124          
1 67121U 25299V   26144.20350520  .00017413  00000+0  64068-3 0  9990
2 67121  43.0017 102.6504 0001937 255.1899 104.8738 15.27585731 24664
STARLINK-36188          
1 67122U 25299W   26144.21121589  .00012719  00000+0  47084-3 0  9996
2 67122  43.0031 102.7116 0001546 264.9389  95.1286 15.27586855 24667
STARLINK-36151          
1 67123U 25299X   26144.18037808  .00010060  00000+0  37446-3 0  9991
2 67123  42.9991 102.4748 0000746 277.4906  82.5861 15.27591843 24666
STARLINK-36195          
1 67124U 25299Y   26144.15853016  .00021259  00000+0  78001-3 0  9990
2 67124  43.0000 102.3114 0003442 269.0289  91.0168 15.27568404 24665
STARLINK-36219          
1 67125U 25299Z   26144.19322713  .00009951  00000+0  37058-3 0  9992
2 67125  43.0047 102.5715 0001647 273.4362  86.6301 15.27586298 24662
STARLINK-36223          
1 67126U 25299AA  26144.18551481  .00006761  00000+0  25490-3 0  9991
2 67126  43.0011 102.5100 0000887 256.8273 103.2480 15.27593053 24664
STARLINK-36164          
1 67127U 25299AB  26143.97522299  .00008953  00000+0  33440-3 0  9992
2 67127  43.0017 103.5159 0001129 247.8642 112.2089 15.27588122 24639
STARLINK-35685          
1 67128U 25299AC  26144.17395520  .00013368  00000+0  49434-3 0  9997
2 67128  43.0030 102.4332 0001069 263.4744  96.5986 15.27586286 24668
